OBJECT_NAME,OBJECT_ID,EPOCH,MEAN_MOTION,ECCENTRICITY,INCLINATION,RA_OF_ASC_NODE,ARG_OF_PERICENTER,MEAN_ANOMALY,EPHEMERIS_TYPE,CLASSIFICATION_TYPE,NORAD_CAT_ID,ELEMENT_SET_NO,REV_AT_EPOCH,BSTAR,MEAN_MOTION_DOT,MEAN_MOTION_DDOT
ONEWEB-0695,2024-188J,2026-07-01T01:53:02.023296,13.11415608,.0002336,87.8876,18.3102,95.0183,265.1211,0,U,61602,999,8628,.87376E-3,.322E-5,0
ONEWEB-0697,2024-188K,2026-07-01T02:39:24.180192,13.11416104,.0002284,87.8876,18.2947,106.1427,253.9953,0,U,61603,999,8627,-.15699E-2,-.544E-5,0
ONEWEB-0698,2024-188L,2026-07-01T02:07:40.555776,13.11414816,.0001724,87.8874,18.3125,126.3713,233.7574,0,U,61604,999,8629,.34449E-3,.135E-5,0
ONEWEB-0699,2024-188M,2026-07-01T02:41:43.825056,13.10372974,.0002304,87.8831,33.4909,98.2850,261.8538,0,U,61605,999,8513,.11255E-2,.406E-5,0
ONEWEB-0700,2024-188N,2026-07-01T02:44:10.678272,13.10376436,.0002326,87.8837,33.4024,98.6361,261.5030,0,U,61606,999,8512,.19122E-2,.68E-5,0
ONEWEB-0701,2024-188P,2026-07-01T03:08:36.987360,13.10369123,.0002154,87.8820,33.4878,108.0898,252.0464,0,U,61607,999,8513,.55507E-3,.206E-5,0
ONEWEB-0702,2024-188Q,2026-07-01T01:23:43.818720,13.11418244,.0002649,87.8897,18.2274,106.7455,253.3964,0,U,61608,999,8630,.69506E-3,.259E-5,0
ONEWEB-0704,2024-188R,2026-07-01T01:01:33.240576,13.10375372,.0002664,87.8825,33.4949,101.7450,258.3977,0,U,61609,999,8510,.17857E-2,.636E-5,0
ONEWEB-0705,2024-188S,2026-07-01T02:58:51.088224,13.10370320,.0002837,87.8826,33.4846,85.8991,274.2460,0,U,61610,999,7728,.15432E-2,.551E-5,0
ONEWEB-0706,2024-188T,2026-07-01T02:36:51.816384,13.10376260,.0002352,87.8823,33.4919,92.7448,267.3949,0,U,61611,999,8520,.18561E-2,.661E-5,0
ONEWEB-0707,2024-188U,2026-07-01T02:46:37.314624,13.10376498,.0002374,87.8827,33.4852,93.4563,266.6836,0,U,61612,999,8514,.18534E-2,.66E-5,0
ONEWEB-0708,2024-188V,2026-07-01T03:13:31.307232,13.10374324,.0002246,87.8812,33.4988,76.0703,284.0674,0,U,61613,999,8512,.3148E-3,.123E-5,0
