ONEWEB-0695             
1 61602U 24188J   26182.07849564  .00000322  00000+0  87376-3 0  9990
2 61602  87.8876  18.3102 0002336  95.0183 265.1211 13.11415608 86288
ONEWEB-0697             
1 61603U 24188K   26182.11069653 -.00000544  00000+0 -15699-2 0  9995
2 61603  87.8876  18.2947 0002284 106.1427 253.9953 13.11416104 86271
ONEWEB-0698             
1 61604U 24188L   26182.08866384  .00000135  00000+0  34449-3 0  9997
2 61604  87.8874  18.3125 0001724 126.3713 233.7574 13.11414816 86294
ONEWEB-0699             
1 61605U 24188M   26182.11231279  .00000406  00000+0  11255-2 0  9991
2 61605  87.8831  33.4909 0002304  98.2850 261.8538 13.10372974 85131
ONEWEB-0700             
1 61606U 24188N   26182.11401248  .00000680  00000+0  19122-2 0  9992
2 61606  87.8837  33.4024 0002326  98.6361 261.5030 13.10376436 85121
ONEWEB-0701             
1 61607U 24188P   26182.13098365  .00000206  00000+0  55507-3 0  9999
2 61607  87.8820  33.4878 0002154 108.0898 252.0464 13.10369123 85133
ONEWEB-0702             
1 61608U 24188Q   26182.05814605  .00000259  00000+0  69506-3 0  9996
2 61608  87.8897  18.2274 0002649 106.7455 253.3964 13.11418244 86301
ONEWEB-0704             
1 61609U 24188R   26182.04274584  .00000636  00000+0  17857-2 0  9992
2 61609  87.8825  33.4949 0002664 101.7450 258.3977 13.10375372 85107
ONEWEB-0705             
1 61610U 24188S   26182.12420241  .00000551  00000+0  15432-2 0  9999
2 61610  87.8826  33.4846 0002837  85.8991 274.2460 13.10370320 77282
ONEWEB-0706             
1 61611U 24188T   26182.10893306  .00000661  00000+0  18561-2 0  9992
2 61611  87.8823  33.4919 0002352  92.7448 267.3949 13.10376260 85202
ONEWEB-0707             
1 61612U 24188U   26182.11570966  .00000660  00000+0  18534-2 0  9997
2 61612  87.8827  33.4852 0002374  93.4563 266.6836 13.10376498 85146
ONEWEB-0708             
1 61613U 24188V   26182.13439013  .00000123  00000+0  31480-3 0  9997
2 61613  87.8812  33.4988 0002246  76.0703 284.0674 13.10374324 85120
